SPAINSAT                
1 28945U 06007A   17344.86154246 -.00000224  00000-0  00000-0 0  9995
2 28945   0.0365 180.0402 0005906  77.4745 102.4243  1.00271147 43043
